[Satellite]
VERSION=1.1
NAME=ALTAIR PATHFINDER
NICKNAME=ALTAIR PATHFINDER
TLE1=1 42711U 98067LS  19317.25380468  .00237543  35762-4  38600-3 0  9993
TLE2=2 42711  51.6272 236.4182 0004111 138.4454 221.6870 16.02882005142535
STATUS=0
